STARLINK-32474          
1 61260U 24175T   24292.91667824 -.01392219  00000+0 -19348-1 0  9990
2 61260  53.1598  35.7050 0001278  60.5195   1.0506 15.59236052  4949
STARLINK-32447          
1 61261U 24175U   24292.91667824 -.01392356  00000+0 -19350-1 0  9996
2 61261  53.1598  35.6971 0001289  60.8358   4.5673 15.59236111  4980
STARLINK-32446          
1 61262U 24175V   24292.91667824 -.01392113  00000+0 -19346-1 0  9993
2 61262  53.1599  35.7010 0001329  59.6495   3.8370 15.59236092  4995
2024-174F               
1 61263U 24174F   24292.92306958  .00209618  14164-4  12419-2 0  9992
2 61263  97.4296 299.2569 0158529 301.8378  56.7529 15.62358087  3685
2024-174G               
1 61443U 24174G   24292.95666227  .00625280  13107-3  24779-2 0  9997
2 61443  97.4234 299.5102 0121655 298.9812  59.9302 15.75978513  3514
CZ-2D R/B               
1 61445U 24177B   24292.60210318  .00351817  52887-4  10764-2 0  9990
2 61445  41.3920  26.0083 0017438  44.0018 316.2215 15.90803811  3368
CREW DRAGON 9           
1 61447U 24178A   24292.81819021  .00031577  00000+0  55742-3 0  9991
2 61447  51.6388  63.0367 0009242  82.3369 277.8669 15.50043695  2979
VULCAN CENTAUR R/B      
1 61448U 24179A   24278.48676111  .00000148  00000+0  00000+0 0  9994
2 61448  30.0000 357.3088 0004000 321.8000 177.5900 15.23529867    07
CYSAT-1                 
1 61501U 98067WZ  24292.74020661  .00186258  00000+0  28486-2 0  9997
2 61501  51.6372  63.2647 0008089  94.4334 265.7581 15.53183351  1649
DORA                    
1 61502U 98067XA  24292.73597509  .00247804  00000+0  35757-2 0  9991
2 61502  51.6369  63.2375 0006077  68.3925 291.7713 15.54566565  1633
HULIANWAN GAOGUI-03 (H*)
1 61503U 24181A   24284.71070559  .00000417 -72097-6  00000+0 0  9998
2 61503  28.4215 224.3262 7300910 179.4337  97.1562  2.28284594    08
CZ-3B R/B               
1 61504U 24181B   24290.24420884  .00071678  13932-5  18633-2 0  9996
2 61504  28.4236 222.1454 7232419 182.3005 169.4169  2.38753983   138
SJ-19 DEB               
1 61505U 24177C   24292.31661204  .04774915  42759-1  64047-2 0  9998
2 61505  41.5930  28.7319 0012063  32.1081 328.0510 16.09404383  1107
SJ-19 DEB               
1 61506U 24177D   24292.62092524  .00129743  00000+0  71277-3 0  9990
2 61506  41.6024  27.5871 0010971  78.1213 282.0864 15.78482107  1113
GAOFEN-12 05            
1 61571U 24186A   24291.24291492  .00005492  00000+0  57610-3 0  9993
2 61571  97.9150 296.5525 0005187 203.8885 156.2092 14.89931965   181
CZ-4C R/B               
1 61572U 24186B   24292.89727869  .00011223  00000+0  81686-3 0  9997
2 61572  97.8988 298.2525 0051524  37.4828 322.9971 15.02885215   431
NOAA 1                  
1 04793U 70106A   24292.93124718 -.00000018  00000+0  15712-3 0  9999
2 04793 101.4311 340.7643 0031932  95.1285  77.9436 12.54034336464697
NOAA 2 (ITOS-D)         
1 06235U 72082A   24292.97226007 -.00000036  00000+0  64525-4 0  9992
2 06235 102.0230 293.3996 0003757 245.5953 142.0904 12.53188504379019
NOAA 3                  
1 06920U 73086A   24292.91902507 -.00000035  00000+0  84399-4 0  9998
2 06920 102.2857 290.0184 0006403 156.5284 233.0463 12.40373273306734
NOAA 4                  
1 07529U 74089A   24292.94923850 -.00000031  00000+0  98418-4 0  9998
2 07529 101.9978 288.3903 0008721 273.5472 114.6516 12.53186105283583
NOAA 5                  
1 09057U 76077A   24292.92554382 -.00000032  00000+0  10244-3 0  9994
2 09057 102.2261 266.2034 0010078  10.2557  11.7975 12.37807420179467
TIROS N                 
1 11060U 78096A   24292.82558346  .00000769  00000+0  38854-3 0  9990
2 11060  98.5198 328.5387 0010240 192.2580 167.8348 14.18973482592741
NOAA 6                  
1 11416U 79057A   24292.97749332  .00001330  00000+0  48455-3 0  9999
2 11416  98.6230 314.0391 0008885 252.3605 107.6610 14.34789715364009
NOAA 7                  
1 12553U 81059A   24292.92445457  .00000394  00000+0  21565-3 0  9995
2 12553  98.8793 352.2808 0011171 196.4897 163.5916 14.17603005238848
NOAA 8                  
1 13923U 83022A   24292.97917687  .00000820  00000+0  33870-3 0  9999
2 13923  98.7366 293.2138 0013943 228.8067 131.1913 14.29408942164452
NOAA 9                  
1 15427U 84123A   24292.79366169  .00000727  00000+0  38691-3 0  9998
2 15427  99.1252 293.3116 0013668 266.9343 265.9925 14.16734062 57544
NOAA 10                 
1 16969U 86073A   24292.76829230  .00000865  00000+0  36069-3 0  9996
2 16969  98.6548 277.6269 0011702 336.1354 197.3663 14.28779119982797
NOAA 11                 
1 19531U 88089A   24292.62850282  .00000446  00000+0  24924-3 0  9991
2 19531  98.5360 249.8454 0010024 237.1708 122.8502 14.15623296861658
NOAA 12                 
1 21263U 91032A   24292.94729609  .00000642  00000+0  28451-3 0  9998
2 21263  98.5697 281.3459 0013791   5.1157 355.0162 14.26435497738524
NOAA 13                 
1 22739U 93050A   24292.61614838  .00000692  00000+0  39084-3 0  9999
2 22739  98.6227 245.5202 0010600  63.4518 296.7741 14.13343352607685
NOAA 14                 
1 23455U 94089A   24292.95619616  .00000396  00000+0  22796-3 0  9997
2 23455  98.4432 282.1635 0010123  32.6433 327.5366 14.14472131537494
NOAA 15                 
1 25338U 98030A   24292.88140901  .00000802  00000+0  34879-3 0  9994
2 25338  98.5603 317.3896 0009587 328.7599  31.3011 14.26757168374823
NOAA 16                 
1 26536U 00055A   24292.87733622  .00000450  00000+0  26026-3 0  9996
2 26536  98.5190 326.7541 0009443 237.9292 122.0965 14.13674321538056
NOAA 17                 
1 27453U 02032A   24292.94097089  .00000904  00000+0  39921-3 0  9992
2 27453  98.7781 243.5504 0010895 314.4752  45.5535 14.25760797160580
NOAA 18                 
1 28654U 05018A   24292.88893763  .00000819  00000+0  45916-3 0  9995
2 28654  98.8655   8.7819 0015126  74.5839 285.7003 14.13379848   656
NOAA 19                 
1 33591U 09005A   24292.92895257  .00000738  00000+0  41862-3 0  9992
2 33591  99.0327 349.9589 0012907 305.5825  54.4143 14.13162944808841
SUOMI NPP               
1 37849U 11061A   24292.88355821  .00000515  00000+0  26513-3 0  9999
2 37849  98.7312 229.0420 0000384 130.1218 229.9992 14.19535490672427
NOAA 20 (JPSS-1)        
1 43013U 17073A   24292.90072365  .00000451  00000+0  23473-3 0  9991
2 43013  98.7153 228.7826 0001012 155.1446 204.9779 14.19542026358458
NOAA 21 (JPSS-2)        
1 54234U 22150A   24292.93760205  .00000551  00000+0  28204-3 0  9998
2 54234  98.7608 229.4165 0001953 109.0634 251.0753 14.19542859100538
ISS (ZARYA)             
1 25544U 98067A   24292.81819021  .00031577  00000+0  55742-3 0  9997
2 25544  51.6388  63.0367 0009242  82.3369 277.8669 15.50043695477726
CSS (TIANHE)            
1 48274U 21035A   24292.33689385  .00039402  00000+0  39132-3 0  9998
2 48274  41.4674  51.8100 0004574 228.6834 131.3613 15.64982897198365
ISS (NAUKA)             
1 49044U 21066A   24292.81819021  .00031577  00000+0  55742-3 0  9993
2 49044  51.6388  63.0367 0009242  82.3369 277.8669 15.50043695183147
FREGAT DEB              
1 49271U 11037PF  24292.52912932  .00023308  00000+0  59047-1 0  9998
2 49271  51.6220 352.2277 0901173  28.7486 336.0108 12.21646224150259
CSS (WENTIAN)           
1 53239U 22085A   24292.33689385  .00039402  00000+0  39132-3 0  9991
2 53239  41.4674  51.8100 0004574 228.6834 131.3613 15.64982897124394
CSS (MENGTIAN)          
1 54216U 22143A   24292.33689385  .00039402  00000+0  39132-3 0  9992
2 54216  41.4674  51.8100 0004574 228.6834 131.3613 15.64982897111813
TIANZHOU-7              
1 58811U 24013A   24292.33689385  .00039402  00000+0  39132-3 0  9995
2 58811  41.4674  51.8100 0004574 228.6834 131.3613 15.64982897474887
CREW DRAGON 8           
1 59097U 24042A   24292.81819021  .00031577  00000+0  55742-3 0  9999
2 59097  51.6388  63.0367 0009242  82.3369 277.8669 15.50043695 35322
1998-067WL              
1 59561U 98067WL  24291.66931316  .00153962  00000+0  92422-3 0  9996
2 59561  51.6275  54.5444 0004773 325.1320  34.9367 15.76764909 28463
SHENZHOU-18 (SZ-18)     
1 59591U 24078A   24292.33689385  .00039402  00000+0  39132-3 0  9992
2 59591  41.4674  51.8100 0004574 228.6834 131.3613 15.64982897 26998
SZ-17 MODULE            
1 59624U 23164C   24292.67495008  .00169253  00000+0  70291-3 0  9997
2 59624  41.4730  38.2493 0011230  38.5417 321.6230 15.84374432 26984
PROGRESS-MS 27          
1 59913U 24103A   24292.81819021  .00031577  00000+0  55742-3 0  9994
2 59913  51.6388  63.0367 0009242  82.3369 277.8669 15.50043695 21526
CYGNUS NG-21            
1 60378U 24139A   24292.81819021  .00031577  00000+0  55742-3 0  9990
2 60378  51.6388  63.0367 0009242  82.3369 277.8669 15.50043695 11061
PROGRESS-MS 28          
1 60450U 24145A   24292.81819021  .00031577  00000+0  55742-3 0  9998
2 60450  51.6388  63.0367 0009242  82.3369 277.8669 15.50043695  9362
BINAR-4                 
1 60952U 98067WS  24292.74234757  .00582413  00000+0  34908-2 0  9998
2 60952  51.6288  59.5186 0006117 339.0598  21.0150 15.75569390  7860
COSMOGIRLSAT            
1 60953U 98067WT  24292.78962919  .00227269  00000+0  22614-2 0  9997
2 60953  51.6335  60.5981 0003624  84.9954 275.1455 15.64431876  7855
SAKURA                  
1 60954U 98067WU  24292.63566226  .00240131  00000+0  22058-2 0  9998
2 60954  51.6334  61.0686 0002775  66.0763 294.0523 15.66396010  7834
1998-067WV              
1 60955U 98067WV  24292.35697786  .01999220  26598-2  39252-2 0  9992
2 60955  51.6247  59.1685 0013020 331.5701  28.4597 15.99937988  7833
BINAR-2                 
1 60956U 98067WW  24292.71330188  .00472771  00000+0  33626-2 0  9995
2 60956  51.6212  60.0603 0004237 357.1531   2.9442 15.71892108  7843
